STARLINK-35408          
1 65859U 25223F   25300.83334491  .00024216  00000+0  61395-3 0  9993
2 65859  53.1588 193.9445 0001150 105.2401  21.2875 15.39595666  5117
STARLINK-35303          
1 65860U 25223G   25300.83334491 -.02215343  00000+0 -57459-1 0  9996
2 65860  53.1594 193.7954 0001046 114.4205  87.6703 15.41776048  5111
STARLINK-35258          
1 65861U 25223H   25300.92269676  .00063016  00000+0  11313-2 0  9993
2 65861  53.1588 193.3281 0000409 105.3088 254.7967 15.49324513  3845
STARLINK-35386          
1 65862U 25223J   25300.92159513 -.00370290  00000+0 -73075-2 0  9992
2 65862  53.1591 193.3214 0002347  24.3463 335.7657 15.47958388  3843
STARLINK-35469          
1 65863U 25223K   25300.83334491  .00008578  00000+0  22433-3 0  9991
2 65863  53.1587 193.8924 0001289  95.4423  56.8734 15.39599599  5116
STARLINK-35471          
1 65864U 25223L   25300.92098157  .00100734  00000+0  17939-2 0  9999
2 65864  53.1586 193.3165 0001050  91.2607 268.8523 15.49342642  3847
STARLINK-35475          
1 65865U 25223M   25300.92063797  .00115162  00000+0  20455-2 0  9990
2 65865  53.1593 193.3141 0001320  99.3363 260.7795 15.49348020  3846
STARLINK-35312          
1 65866U 25223N   25300.92028712  .00101997  00000+0  18178-2 0  9999
2 65866  53.1588 193.3120 0002071 124.8094 235.3110 15.49313898  3841
STARLINK-35456          
1 65867U 25223P   25300.98447223  .00071414  00000+0  12808-2 0  9992
2 65867  53.1592 193.0013 0001282  92.4677 267.6478 15.49299215  3857
STARLINK-35450          
1 65868U 25223Q   25300.83334491  .00025996  00000+0  65766-3 0  9995
2 65868  53.1592 193.8372 0001415  75.3887 104.4010 15.39620269  5112
STARLINK-35441          
1 65869U 25223R   25300.83334491  .00004906  00000+0  13234-3 0  9997
2 65869  53.1589 193.8871 0001108  89.7866  64.2233 15.39667847  5111
STARLINK-35433          
1 65870U 25223S   25300.83334491 -.01986371  00000+0 -49737-1 0  9992
2 65870  53.1598 193.7422 0001622  87.1115 139.6808 15.42996722  5110
