CCSDS_OMM_VERS = 2.0
CREATION_DATE  = 
ORIGINATOR     = 

OBJECT_NAME    = STARLINK-35408
OBJECT_ID      = 2025-223F
CENTER_NAME    = EARTH
REF_FRAME      = TEME
TIME_SYSTEM    = UTC
MEAN_ELEMENT_THEORY = SGP/SGP4

EPOCH          = 2025-10-27T20:00:01.000224
MEAN_MOTION    = 15.39595666
ECCENTRICITY   = .00011502
INCLINATION    = 53.1588
RA_OF_ASC_NODE = 193.9445
ARG_OF_PERICENTER = 105.2401
MEAN_ANOMALY   = 21.2875

EPHEMERIS_TYPE = 0
CLASSIFICATION_TYPE = U
NORAD_CAT_ID   = 65859
ELEMENT_SET_NO = 999
REV_AT_EPOCH   = 511
BSTAR          = .61394807E-3
MEAN_MOTION_DOT = .24216E-3
MEAN_MOTION_DDOT = 0

CCSDS_OMM_VERS = 2.0
CREATION_DATE  = 
ORIGINATOR     = 

OBJECT_NAME    = STARLINK-35303
OBJECT_ID      = 2025-223G
CENTER_NAME    = EARTH
REF_FRAME      = TEME
TIME_SYSTEM    = UTC
MEAN_ELEMENT_THEORY = SGP/SGP4

EPOCH          = 2025-10-27T20:00:01.000224
MEAN_MOTION    = 15.41776048
ECCENTRICITY   = .00010461
INCLINATION    = 53.1594
RA_OF_ASC_NODE = 193.7954
ARG_OF_PERICENTER = 114.4205
MEAN_ANOMALY   = 87.6703

EPHEMERIS_TYPE = 0
CLASSIFICATION_TYPE = U
NORAD_CAT_ID   = 65860
ELEMENT_SET_NO = 999
REV_AT_EPOCH   = 511
BSTAR          = -.57458991E-1
MEAN_MOTION_DOT = -.2215343E-1
MEAN_MOTION_DDOT = 0

CCSDS_OMM_VERS = 2.0
CREATION_DATE  = 
ORIGINATOR     = 

OBJECT_NAME    = STARLINK-35258
OBJECT_ID      = 2025-223H
CENTER_NAME    = EARTH
REF_FRAME      = TEME
TIME_SYSTEM    = UTC
MEAN_ELEMENT_THEORY = SGP/SGP4

EPOCH          = 2025-10-27T22:08:41.000064
MEAN_MOTION    = 15.49324513
ECCENTRICITY   = .00004092
INCLINATION    = 53.1588
RA_OF_ASC_NODE = 193.3281
ARG_OF_PERICENTER = 105.3088
MEAN_ANOMALY   = 254.7967

EPHEMERIS_TYPE = 0
CLASSIFICATION_TYPE = U
NORAD_CAT_ID   = 65861
ELEMENT_SET_NO = 999
REV_AT_EPOCH   = 384
BSTAR          = .11313397E-2
MEAN_MOTION_DOT = .63016E-3
MEAN_MOTION_DDOT = 0

CCSDS_OMM_VERS = 2.0
CREATION_DATE  = 
ORIGINATOR     = 

OBJECT_NAME    = STARLINK-35386
OBJECT_ID      = 2025-223J
CENTER_NAME    = EARTH
REF_FRAME      = TEME
TIME_SYSTEM    = UTC
MEAN_ELEMENT_THEORY = SGP/SGP4

EPOCH          = 2025-10-27T22:07:05.819232
MEAN_MOTION    = 15.47958388
ECCENTRICITY   = .00023478
INCLINATION    = 53.1591
RA_OF_ASC_NODE = 193.3214
ARG_OF_PERICENTER = 24.3463
MEAN_ANOMALY   = 335.7657

EPHEMERIS_TYPE = 0
CLASSIFICATION_TYPE = U
NORAD_CAT_ID   = 65862
ELEMENT_SET_NO = 999
REV_AT_EPOCH   = 384
BSTAR          = -.73074799E-2
MEAN_MOTION_DOT = -.37029E-2
MEAN_MOTION_DDOT = 0

CCSDS_OMM_VERS = 2.0
CREATION_DATE  = 
ORIGINATOR     = 

OBJECT_NAME    = STARLINK-35469
OBJECT_ID      = 2025-223K
CENTER_NAME    = EARTH
REF_FRAME      = TEME
TIME_SYSTEM    = UTC
MEAN_ELEMENT_THEORY = SGP/SGP4

EPOCH          = 2025-10-27T20:00:01.000224
MEAN_MOTION    = 15.39599599
ECCENTRICITY   = .00012897
INCLINATION    = 53.1587
RA_OF_ASC_NODE = 193.8924
ARG_OF_PERICENTER = 95.4423
MEAN_ANOMALY   = 56.8734

EPHEMERIS_TYPE = 0
CLASSIFICATION_TYPE = U
NORAD_CAT_ID   = 65863
ELEMENT_SET_NO = 999
REV_AT_EPOCH   = 511
BSTAR          = .22433412E-3
MEAN_MOTION_DOT = .8578E-4
MEAN_MOTION_DDOT = 0

CCSDS_OMM_VERS = 2.0
CREATION_DATE  = 
ORIGINATOR     = 

OBJECT_NAME    = STARLINK-35471
OBJECT_ID      = 2025-223L
CENTER_NAME    = EARTH
REF_FRAME      = TEME
TIME_SYSTEM    = UTC
MEAN_ELEMENT_THEORY = SGP/SGP4

EPOCH          = 2025-10-27T22:06:12.807648
MEAN_MOTION    = 15.49342642
ECCENTRICITY   = .00010507
INCLINATION    = 53.1586
RA_OF_ASC_NODE = 193.3165
ARG_OF_PERICENTER = 91.2607
MEAN_ANOMALY   = 268.8523

EPHEMERIS_TYPE = 0
CLASSIFICATION_TYPE = U
NORAD_CAT_ID   = 65864
ELEMENT_SET_NO = 999
REV_AT_EPOCH   = 384
BSTAR          = .17938682E-2
MEAN_MOTION_DOT = .100734E-2
MEAN_MOTION_DDOT = 0

CCSDS_OMM_VERS = 2.0
CREATION_DATE  = 
ORIGINATOR     = 

OBJECT_NAME    = STARLINK-35475
OBJECT_ID      = 2025-223M
CENTER_NAME    = EARTH
REF_FRAME      = TEME
TIME_SYSTEM    = UTC
MEAN_ELEMENT_THEORY = SGP/SGP4

EPOCH          = 2025-10-27T22:05:43.120608
MEAN_MOTION    = 15.49348020
ECCENTRICITY   = .00013207
INCLINATION    = 53.1593
RA_OF_ASC_NODE = 193.3141
ARG_OF_PERICENTER = 99.3363
MEAN_ANOMALY   = 260.7795

EPHEMERIS_TYPE = 0
CLASSIFICATION_TYPE = U
NORAD_CAT_ID   = 65865
ELEMENT_SET_NO = 999
REV_AT_EPOCH   = 384
BSTAR          = .20454642E-2
MEAN_MOTION_DOT = .115162E-2
MEAN_MOTION_DDOT = 0

CCSDS_OMM_VERS = 2.0
CREATION_DATE  = 
ORIGINATOR     = 

OBJECT_NAME    = STARLINK-35312
OBJECT_ID      = 2025-223N
CENTER_NAME    = EARTH
REF_FRAME      = TEME
TIME_SYSTEM    = UTC
MEAN_ELEMENT_THEORY = SGP/SGP4

EPOCH          = 2025-10-27T22:05:12.807168
MEAN_MOTION    = 15.49313898
ECCENTRICITY   = .00020716
INCLINATION    = 53.1588
RA_OF_ASC_NODE = 193.3120
ARG_OF_PERICENTER = 124.8094
MEAN_ANOMALY   = 235.3110

EPHEMERIS_TYPE = 0
CLASSIFICATION_TYPE = U
NORAD_CAT_ID   = 65866
ELEMENT_SET_NO = 999
REV_AT_EPOCH   = 384
BSTAR          = .18177512E-2
MEAN_MOTION_DOT = .101997E-2
MEAN_MOTION_DDOT = 0

CCSDS_OMM_VERS = 2.0
CREATION_DATE  = 
ORIGINATOR     = 

OBJECT_NAME    = STARLINK-35456
OBJECT_ID      = 2025-223P
CENTER_NAME    = EARTH
REF_FRAME      = TEME
TIME_SYSTEM    = UTC
MEAN_ELEMENT_THEORY = SGP/SGP4

EPOCH          = 2025-10-27T23:37:38.400672
MEAN_MOTION    = 15.49299215
ECCENTRICITY   = .00012821
INCLINATION    = 53.1592
RA_OF_ASC_NODE = 193.0013
ARG_OF_PERICENTER = 92.4677
MEAN_ANOMALY   = 267.6478

EPHEMERIS_TYPE = 0
CLASSIFICATION_TYPE = U
NORAD_CAT_ID   = 65867
ELEMENT_SET_NO = 999
REV_AT_EPOCH   = 385
BSTAR          = .12808094E-2
MEAN_MOTION_DOT = .71414E-3
MEAN_MOTION_DDOT = 0

CCSDS_OMM_VERS = 2.0
CREATION_DATE  = 
ORIGINATOR     = 

OBJECT_NAME    = STARLINK-35450
OBJECT_ID      = 2025-223Q
CENTER_NAME    = EARTH
REF_FRAME      = TEME
TIME_SYSTEM    = UTC
MEAN_ELEMENT_THEORY = SGP/SGP4

EPOCH          = 2025-10-27T20:00:01.000224
MEAN_MOTION    = 15.39620269
ECCENTRICITY   = .00014158
INCLINATION    = 53.1592
RA_OF_ASC_NODE = 193.8372
ARG_OF_PERICENTER = 75.3887
MEAN_ANOMALY   = 104.4010

EPHEMERIS_TYPE = 0
CLASSIFICATION_TYPE = U
NORAD_CAT_ID   = 65868
ELEMENT_SET_NO = 999
REV_AT_EPOCH   = 511
BSTAR          = .65766306E-3
MEAN_MOTION_DOT = .25996E-3
MEAN_MOTION_DDOT = 0

CCSDS_OMM_VERS = 2.0
CREATION_DATE  = 
ORIGINATOR     = 

OBJECT_NAME    = STARLINK-35441
OBJECT_ID      = 2025-223R
CENTER_NAME    = EARTH
REF_FRAME      = TEME
TIME_SYSTEM    = UTC
MEAN_ELEMENT_THEORY = SGP/SGP4

EPOCH          = 2025-10-27T20:00:01.000224
MEAN_MOTION    = 15.39667847
ECCENTRICITY   = .00011089
INCLINATION    = 53.1589
RA_OF_ASC_NODE = 193.8871
ARG_OF_PERICENTER = 89.7866
MEAN_ANOMALY   = 64.2233

EPHEMERIS_TYPE = 0
CLASSIFICATION_TYPE = U
NORAD_CAT_ID   = 65869
ELEMENT_SET_NO = 999
REV_AT_EPOCH   = 511
BSTAR          = .13234474E-3
MEAN_MOTION_DOT = .4906E-4
MEAN_MOTION_DDOT = 0

CCSDS_OMM_VERS = 2.0
CREATION_DATE  = 
ORIGINATOR     = 

OBJECT_NAME    = STARLINK-35433
OBJECT_ID      = 2025-223S
CENTER_NAME    = EARTH
REF_FRAME      = TEME
TIME_SYSTEM    = UTC
MEAN_ELEMENT_THEORY = SGP/SGP4

EPOCH          = 2025-10-27T20:00:01.000224
MEAN_MOTION    = 15.42996722
ECCENTRICITY   = .00016221
INCLINATION    = 53.1598
RA_OF_ASC_NODE = 193.7422
ARG_OF_PERICENTER = 87.1115
MEAN_ANOMALY   = 139.6808

EPHEMERIS_TYPE = 0
CLASSIFICATION_TYPE = U
NORAD_CAT_ID   = 65870
ELEMENT_SET_NO = 999
REV_AT_EPOCH   = 511
BSTAR          = -.49737466E-1
MEAN_MOTION_DOT = -.1986371E-1
MEAN_MOTION_DDOT = 0

